[{"OBJECT_NAME":"STARLINK-2610","OBJECT_ID":"2021-038Z","EPOCH":"2026-03-09T22:45:55.353312","MEAN_MOTION":15.30187161,"ECCENTRICITY":0.00013679,"INCLINATION":53.159,"RA_OF_ASC_NODE":346.5999,"ARG_OF_PERICENTER":111.1285,"MEAN_ANOMALY":248.9862,"EPHEMERIS_TYPE":0,"CLASSIFICATION_TYPE":"U","NORAD_CAT_ID":48376,"ELEMENT_SET_NO":999,"REV_AT_EPOCH":26726,"BSTAR":0.00048412082,"MEAN_MOTION_DOT":0.00014,"MEAN_MOTION_DDOT":0},{"OBJECT_NAME":"TIANMU-1 10","OBJECT_ID":"2023-101D","EPOCH":"2026-03-09T23:06:46.939392","MEAN_MOTION":15.2921896,"ECCENTRICITY":0.00069292,"INCLINATION":97.2749,"RA_OF_ASC_NODE":122.1027,"ARG_OF_PERICENTER":133.6162,"MEAN_ANOMALY":226.5654,"EPHEMERIS_TYPE":0,"CLASSIFICATION_TYPE":"U","NORAD_CAT_ID":57402,"ELEMENT_SET_NO":999,"REV_AT_EPOCH":14647,"BSTAR":0.00032238884,"MEAN_MOTION_DOT":9.075e-5,"MEAN_MOTION_DDOT":0}]
